NORAD_CAT_ID,OBJECT_NAME,OBJECT_TYPE,EPOCH,MEAN_MOTION,ECCENTRICITY,INCLINATION,RA_OF_ASC_NODE,ARG_OF_PERICENTER,MEAN_ANOMALY,BSTAR,MEAN_MOTION_DOT,MEAN_MOTION_DDOT,TLE_LINE0,TLE_LINE1,TLE_LINE2,SEMIMAJOR_AXIS,PERIOD,APOGEE,PERIGEE,DECAYED
54053.0,STARLINK-5176,PAYLOAD,2024-03-08 03:38:13,15.08845668,0.0001387,53.2189,28.3272,96.3842,263.7308,-4.7886e-05,-1.05e-05,0.0,0 STARLINK-5176,1 54053U 22136C   24068.15154517 -.00001050  00000-0 -47886-4 0  9995,2 54053  53.2189  28.3272 0001387  96.3842 263.7308 15.08845668 76409,6917.863,95.437,540.688,538.769,0.0
54053.0,STARLINK-5176,PAYLOAD,2024-03-08 14:45:55,15.08844063,0.0001594,53.2205,26.2438,97.3248,262.7926,-6.8818e-06,-3.98e-06,0.0,0 STARLINK-5176,1 54053U 22136C   24068.61522474 -.00000398  00000-0 -68818-5 0  9990,2 54053  53.2205  26.2438 0001594  97.3248 262.7926 15.08844063 76953,6917.868,95.437,540.836,538.63,0.0
54053.0,STARLINK-5176,PAYLOAD,2024-03-08 21:07:27,15.08845678,0.0001479,53.2197,25.0555,103.928,256.1877,1.9388e-05,2.1e-07,0.0,0 STARLINK-5176,1 54053U 22136C   24068.88018416  .00000021  00000-0  19388-4 0  9993,2 54053  53.2197  25.0555 0001479 103.9280 256.1877 15.08845678 76519,6917.863,95.437,540.751,538.705,0.0
54053.0,STARLINK-5176,PAYLOAD,2024-03-09 06:39:45,15.08855633,0.0001356,53.2188,23.2717,101.087,259.0274,6.9798e-05,8.24e-06,0.0,0 STARLINK-5176,1 54053U 22136C   24069.27761480  .00000824  00000-0  69798-4 0  9994,2 54053  53.2188  23.2717 0001356 101.0870 259.0274 15.08855633 77052,6917.833,95.437,540.636,538.76,0.0
54053.0,STARLINK-5176,PAYLOAD,2024-03-10 03:19:46,15.08844749,0.0001468,53.2181,19.4027,107.1566,252.9587,0.00011096,1.479e-05,0.0,0 STARLINK-5176,1 54053U 22136C   24070.13873772  .00001479  00000-0  11096-3 0  9993,2 54053  53.2181  19.4027 0001468 107.1566 252.9587 15.08844749 77188,6917.866,95.437,540.746,538.715,0.0
54053.0,STARLINK-5176,PAYLOAD,2024-03-10 20:49:01,15.08839298,0.0001095,53.2177,16.1353,92.4005,267.7113,3.9526e-06,-2.25e-06,0.0,0 STARLINK-5176,1 54053U 22136C   24070.86738414 -.00000225  00000-0  39526-5 0  9995,2 54053  53.2177  16.1353 0001095  92.4005 267.7113 15.08839298 77293,6917.883,95.438,540.505,538.99,0.0
54053.0,STARLINK-5176,PAYLOAD,2024-03-11 12:42:53,15.08840008,0.0001301,53.218,13.1612,81.9099,278.2041,-4.3823e-05,-9.85e-06,0.0,0 STARLINK-5176,1 54053U 22136C   24071.52978401 -.00000985  00000-0 -43823-4 0  9999,2 54053  53.2180  13.1612 0001301  81.9099 278.2041 15.08840008 76914,6917.88,95.438,540.645,538.845,0.0
54053.0,STARLINK-5176,PAYLOAD,2024-03-11 20:39:49,15.0883073,0.000126,53.2188,11.6777,91.3714,268.7423,2.9881e-06,-2.4e-06,0.0,0 STARLINK-5176,1 54053U 22136C   24071.86098974 -.00000240  00000-0  29881-5 0  9996,2 54053  53.2188  11.6777 0001260  91.3714 268.7423 15.08830730 77448,6917.909,95.438,540.645,538.902,0.0
54053.0,STARLINK-5176,PAYLOAD,2024-03-12 04:36:44,15.08839274,0.0001197,53.2183,10.189,104.5249,255.5876,7.3216e-05,8.78e-06,0.0,0 STARLINK-5176,1 54053U 22136C   24072.19218243  .00000878  00000-0  73216-4 0  9992,2 54053  53.2183  10.1890 0001197 104.5249 255.5876 15.08839274 77495,6917.883,95.438,540.576,538.92,0.0
54053.0,STARLINK-5176,PAYLOAD,2024-03-13 12:24:27,15.08839214,0.0001475,53.2197,4.2406,87.305,272.8111,-2.8647e-05,-7.44e-06,0.0,0 STARLINK-5176,1 54053U 22136C   24073.51699021 -.00000744  00000-0 -28647-4 0  9998,2 54053  53.2197   4.2406 0001475  87.3050 272.8111 15.08839214 77694,6917.883,95.438,540.768,538.727,0.0
54053.0,STARLINK-5176,PAYLOAD,2024-03-14 04:18:18,15.08848436,0.0001453,53.2195,1.2672,93.1383,266.9776,0.00013504,1.862e-05,0.0,0 STARLINK-5176,1 54053U 22136C   24074.17938198  .00001862  00000-0  13504-3 0  9997,2 54053  53.2195   1.2672 0001453  93.1383 266.9776 15.08848436 77792,6917.855,95.437,540.725,538.714,0.0
54053.0,STARLINK-5176,PAYLOAD,2024-03-15 04:09:06,15.08845297,0.0001471,53.2196,356.8024,82.0128,278.1031,3.4857e-05,2.67e-06,0.0,0 STARLINK-5176,1 54053U 22136C   24075.17298800  .00000267  00000-0  34857-4 0  9990,2 54053  53.2196 356.8024 0001471  82.0128 278.1031 15.08845297 77945,6917.864,95.437,540.747,538.712,0.0
54053.0,STARLINK-5176,PAYLOAD,2024-03-16 03:59:52,15.08849896,0.0001569,53.2199,352.3401,86.0441,274.0731,3.2287e-05,2.26e-06,0.0,0 STARLINK-5176,1 54053U 22136C   24076.16658406  .00000226  00000-0  32287-4 0  9992,2 54053  53.2199 352.3401 0001569  86.0441 274.0731 15.08849896 77613,6917.85,95.437,540.801,538.63,0.0
54053.0,STARLINK-5176,PAYLOAD,2024-03-16 21:29:07,15.08840035,0.0001462,53.2199,349.0681,98.9377,261.178,3.9146e-06,-2.26e-06,0.0,0 STARLINK-5176,1 54053U 22136C   24076.89523056 -.00000226  00000-0  39146-5 0  9997,2 54053  53.2199 349.0681 0001462  98.9377 261.1780 15.08840035 78201,6917.88,95.438,540.757,538.734,0.0
54053.0,STARLINK-5176,PAYLOAD,2024-03-17 03:50:40,15.08839145,0.0001489,53.2206,347.8825,93.7292,266.3871,-4.2941e-06,-3.56e-06,0.0,0 STARLINK-5176,1 54053U 22136C   24077.16019145 -.00000356  00000-0 -42941-5 0  9999,2 54053  53.2206 347.8825 0001489  93.7292 266.3871 15.08839145 77762,6917.883,95.438,540.778,538.718,0.0
54053.0,STARLINK-5176,PAYLOAD,2024-03-17 21:19:54,15.08845914,0.0001445,53.2197,344.6136,87.6102,272.5055,-3.8262e-05,-8.97e-06,0.0,0 STARLINK-5176,1 54053U 22136C   24077.88882882 -.00000897  00000-0 -38262-4 0  9994,2 54053  53.2197 344.6136 0001445  87.6102 272.5055 15.08845914 77871,6917.862,95.437,540.727,538.728,0.0
54053.0,STARLINK-5176,PAYLOAD,2024-03-18 03:41:26,15.08844907,0.0001522,53.2196,343.4244,114.3111,245.804,3.9782e-05,3.45e-06,0.0,0 STARLINK-5176,1 54053U 22136C   24078.15378463  .00000345  00000-0  39782-4 0  9994,2 54053  53.2196 343.4244 0001522 114.3111 245.8040 15.08844907 78397,6917.865,95.437,540.783,538.677,0.0
54053.0,STARLINK-5176,PAYLOAD,2024-03-18 21:10:41,15.08844149,0.0001449,53.2187,340.1546,106.5779,253.5373,8.1645e-05,1.012e-05,0.0,0 STARLINK-5176,1 54053U 22136C   24078.88242628  .00001012  00000-0  81645-4 0  9994,2 54053  53.2187 340.1546 0001449 106.5779 253.5373 15.08844149 78020,6917.868,95.437,540.735,538.73,0.0
54053.0,STARLINK-5176,PAYLOAD,2024-03-19 00:21:28,15.08842177,0.0001366,53.2194,339.5596,104.9311,255.1832,1.012e-05,-1.27e-06,0.0,0 STARLINK-5176,1 54053U 22136C   24079.01490904 -.00000127  00000-0  10120-4 0  9999,2 54053  53.2194 339.5596 0001366 104.9311 255.1832 15.08842177 78529,6917.874,95.437,540.684,538.794,0.0
54053.0,STARLINK-5176,PAYLOAD,2024-03-20 01:47:37,15.08854807,0.0001359,53.2191,334.8058,102.1544,257.96,7.6815e-05,9.35e-06,0.0,0 STARLINK-5176,1 54053U 22136C   24080.07473899  .00000935  00000-0  76815-4 0  9990,2 54053  53.2191 334.8058 0001359 102.1544 257.9600 15.08854807 78680,6917.835,95.437,540.64,538.76,0.0
54053.0,STARLINK-5176,PAYLOAD,2024-03-20 20:52:16,15.08832919,0.000126,53.2195,331.2385,105.3927,254.7204,-3.9787e-05,-9.21e-06,0.0,0 STARLINK-5176,1 54053U 22136C   24080.86963955 -.00000921  00000-0 -39787-4 0  9998,2 54053  53.2195 331.2385 0001260 105.3927 254.7204 15.08832919 78808,6917.902,95.438,540.639,538.895,0.0
54053.0,STARLINK-5176,PAYLOAD,2024-03-20 22:27:40,15.08833425,0.0001354,53.2192,330.9408,100.775,259.3394,-3.5502e-05,-8.53e-06,0.0,0 STARLINK-5176,1 54053U 22136C   24080.93587971 -.00000853  00000-0 -35502-4 0  9991,2 54053  53.2192 330.9408 0001354 100.7750 259.3394 15.08833425 78336,6917.9,95.438,540.702,538.829,0.0
54053.0,STARLINK-5176,PAYLOAD,2024-03-21 00:03:03,15.08834756,0.00013,53.2192,330.6435,89.228,270.8861,-2.3542e-05,-6.62e-06,0.0,0 STARLINK-5176,1 54053U 22136C   24081.00211936 -.00000662  00000-0 -23542-4 0  9994,2 54053  53.2192 330.6435 0001300  89.2280 270.8861 15.08834756 78349,6917.896,95.438,540.661,538.862,0.0
54053.0,STARLINK-5176,PAYLOAD,2024-03-21 20:43:03,15.08846049,0.0001216,53.2181,326.7822,50.8191,309.2909,7.9041e-05,9.71e-06,0.0,0 STARLINK-5176,1 54053U 22136C   24081.86323181  .00000971  00000-0  79041-4 0  9990,2 54053  53.2181 326.7822 0001216  50.8191 309.2909 15.08846049 78959,6917.862,95.437,540.568,538.886,0.0
54053.0,STARLINK-5176,PAYLOAD,2024-03-21 22:18:26,15.08846418,0.0001867,53.2182,326.4866,47.5195,312.5955,9.6026e-05,1.241e-05,0.0,0 STARLINK-5176,1 54053U 22136C   24081.92947176  .00001241  00000-0  96026-4 0  9996,2 54053  53.2182 326.4866 0001867  47.5195 312.5955 15.08846418 78480,6917.861,95.437,541.017,538.434,0.0
54053.0,STARLINK-5176,PAYLOAD,2024-03-22 01:29:11,15.08861424,0.0001141,53.2173,325.8835,107.5328,252.5789,0.00033633,5.072e-05,0.0,0 STARLINK-5176,1 54053U 22136C   24082.06194045  .00005072  00000-0  33633-3 0  9991,2 54053  53.2173 325.8835 0001141 107.5328 252.5789 15.08861424 78986,6917.815,95.436,540.469,538.891,0.0
54053.0,STARLINK-5176,PAYLOAD,2024-03-22 20:33:50,15.08842387,0.0001672,53.2168,322.3155,102.6945,257.4234,0.00015538,2.186e-05,0.0,0 STARLINK-5176,1 54053U 22136C   24082.85683233  .00002186  00000-0  15538-3 0  9997,2 54053  53.2168 322.3155 0001672 102.6945 257.4234 15.08842387 79108,6917.873,95.437,540.895,538.581,0.0
54053.0,STARLINK-5176,PAYLOAD,2024-03-23 20:24:37,15.08839414,0.0001315,53.2174,317.8544,102.6084,257.5055,-0.00018767,-3.273e-05,0.0,0 STARLINK-5176,1 54053U 22136C   24083.85043383 -.00003273  00000-0 -18767-3 0  9991,2 54053  53.2174 317.8544 0001315 102.6084 257.5055 15.08839414 79259,6917.882,95.438,540.657,538.837,0.0
54053.0,STARLINK-5176,PAYLOAD,2024-03-23 22:00:00,15.0884083,0.000158,53.2177,317.5577,75.4723,284.6445,-0.00013587,-2.45e-05,0.0,0 STARLINK-5176,1 54053U 22136C   24083.91667540 -.00002450  00000-0 -13587-3 0  9996,2 54053  53.2177 317.5577 0001580  75.4723 284.6445 15.08840830 78781,6917.878,95.438,540.836,538.65,0.0
54053.0,STARLINK-5176,PAYLOAD,2024-03-24 09:07:42,15.08839361,0.0001649,53.2185,315.4757,89.5952,270.5229,-5.6585e-05,-1.188e-05,0.0,0 STARLINK-5176,1 54053U 22136C   24084.38035837 -.00001188  00000-0 -56585-4 0  9999,2 54053  53.2185 315.4757 0001649  89.5952 270.5229 15.08839361 78852,6917.882,95.438,540.888,538.607,0.0
